50499,ONEWEB-0427,2021,109.2,148.0,+,87.92,Active,1,LEO,Kazakhstan,UK,Commercial,Communications,Soyuz,1 50499U 21132AG  25144.25609563  .00000080  00000+0  17097-3 0  9992,2 50499  87.9157  52.7301 0002126  75.5770 284.5597 13.18684310170357,13.1868431,0.0002126,LEO
50500,ONEWEB-0429,2021,109.2,148.0,+,87.92,Active,1,LEO,Kazakhstan,UK,Commercial,Communications,Soyuz,1 50500U 21132AH  25144.24345003  .00000090  00000+0  19516-3 0  9999,2 50500  87.9161  52.7594 0001825  82.3088 277.8251 13.18685623170329,13.18685623,0.0001825,LEO
50501,ONEWEB-0430,2021,109.2,148.0,+,87.92,Active,1,LEO,Kazakhstan,UK,Commercial,Communications,Soyuz,1 50501U 21132AJ  25144.46002373  .00000003  00000+0 -24982-4 0  9993,2 50501  87.9163  52.7101 0002034  88.1185 272.0180 13.18685039170397,13.18685039,0.0002034,LEO
50502,ONEWEB-0432,2021,109.2,148.0,+,87.92,Active,1,LEO,Kazakhstan,UK,Commercial,Communications,Soyuz,1 50502U 21132AK  25144.26401160  .00000060  00000+0  12055-3 0  9998,2 50502  87.9153  52.7371 0002866  81.2289 278.9167 13.18684847170327,13.18684847,0.0002866,LEO
50503,ONEWEB-0440,2021,109.2,148.0,+,87.92,Active,1,LEO,Kazakhstan,UK,Commercial,Communications,Soyuz,1 50503U 21132AL  25144.25135097  .00000042  00000+0  73455-4 0  9993,2 50503  87.9162  52.7396 0001526  73.1864 286.9436 13.18685049170318,13.18685049,0.0001526,LEO
50504,ONEWEB-0450,2021,109.2,148.0,+,87.92,Active,1,LEO,Kazakhstan,UK,Commercial,Communications,Soyuz,1 50504U 21132AM  25144.47280204  .00000021  00000+0  19303-4 0  9998,2 50504  87.9162  52.7238 0001782  88.2583 271.8753 13.18685028170371,13.18685028,0.0001782,LEO
51622,ONEWEB-0410,2022,109.29,148.0,+,87.91,Active,1,LEO,French Guiana,UK,Commercial,Communications,Soyuz,1 51622U 22012A   25144.34814867  .00000073  00000+0  15489-3 0  9999,2 51622  87.9061  83.2618 0003062  57.9882 302.1546 13.17647575162496,13.17647575,0.0003062,LEO
51623,ONEWEB-0411,2022,109.89,148.0,+,87.88,Active,1,LEO,French Guiana,UK,Commercial,Communications,Soyuz,1 51623U 22012B   25144.42970044  .00000469  00000+0  13075-2 0  9996,2 51623  87.8812 113.7792 0002375  98.0117 262.1280 13.10375136158371,13.10375136,0.0002375,LEO
